NORAD_CAT_ID,OBJECT_NAME,OBJECT_TYPE,EPOCH,MEAN_MOTION,ECCENTRICITY,INCLINATION,RA_OF_ASC_NODE,ARG_OF_PERICENTER,MEAN_ANOMALY,BSTAR,MEAN_MOTION_DOT,MEAN_MOTION_DDOT,TLE_LINE0,TLE_LINE1,TLE_LINE2,SEMIMAJOR_AXIS,PERIOD,APOGEE,PERIGEE,DECAYED
56785.0,STARLINK-5931,PAYLOAD,2024-06-21 22:12:31,14.98326544,0.0002771,69.9999,122.3569,268.102,91.9822,2.8737e-05,2.5e-06,0.0,0 STARLINK-5931,1 56785U 23078U   24173.92536592  .00000250  00000-0  28737-4 0  9997,2 56785  69.9999 122.3569 0002771 268.1020  91.9822 14.98326544 59638,6950.204,96.107,573.994,570.143,0.0
56785.0,STARLINK-5931,PAYLOAD,2024-06-22 04:37:03,14.98326989,0.0002811,69.9997,121.6825,265.7253,94.3585,8.4088e-06,7e-08,0.0,0 STARLINK-5931,1 56785U 23078U   24174.19240647  .00000007  00000-0  84088-5 0  9992,2 56785  69.9997 121.6825 0002811 265.7253  94.3585 14.98326989 59242,6950.202,96.107,574.021,570.114,0.0
56785.0,STARLINK-5931,PAYLOAD,2024-06-22 06:13:11,14.98327842,0.0002824,69.9997,121.5142,266.41,93.6736,1.5416e-05,9.1e-07,0.0,0 STARLINK-5931,1 56785U 23078U   24174.25916586  .00000091  00000-0  15416-4 0  9992,2 56785  69.9997 121.5142 0002824 266.4100  93.6736 14.98327842 59683,6950.2,96.107,574.027,570.102,0.0
56785.0,STARLINK-5931,PAYLOAD,2024-06-22 22:14:32,14.98331492,0.0002924,69.9997,119.8321,269.8041,90.2783,3.2044e-05,2.89e-06,0.0,0 STARLINK-5931,1 56785U 23078U   24174.92676344  .00000289  00000-0  32044-4 0  9996,2 56785  69.9997 119.8321 0002924 269.8041  90.2783 14.98331492 59786,6950.188,96.107,574.086,570.021,0.0
56785.0,STARLINK-5931,PAYLOAD,2024-06-23 04:39:04,14.98333705,0.00029,69.9998,119.1591,269.994,90.0886,5.8293e-05,6.03e-06,0.0,0 STARLINK-5931,1 56785U 23078U   24175.19380099  .00000603  00000-0  58293-4 0  9999,2 56785  69.9998 119.1591 0002900 269.9940  90.0886 14.98333705 59390,6950.181,96.107,574.062,570.031,0.0
56785.0,STARLINK-5931,PAYLOAD,2024-06-23 06:15:12,14.98334481,0.00029,69.9998,118.991,270.0709,90.0118,6.5525e-05,6.89e-06,0.0,0 STARLINK-5931,1 56785U 23078U   24175.26056016  .00000689  00000-0  65525-4 0  9996,2 56785  69.9998 118.9910 0002900 270.0709  90.0118 14.98334481 59837,6950.179,96.107,574.06,570.028,0.0
56785.0,STARLINK-5931,PAYLOAD,2024-06-23 22:16:33,14.98332082,0.0002847,70.0,117.3079,270.5869,89.4964,4.5199e-05,4.46e-06,0.0,0 STARLINK-5931,1 56785U 23078U   24175.92816105  .00000446  00000-0  45199-4 0  9998,2 56785  70.0000 117.3079 0002847 270.5869  89.4964 14.98332082 59932,6950.186,96.107,574.03,570.073,0.0
56785.0,STARLINK-5931,PAYLOAD,2024-06-24 04:41:05,14.98334951,0.0002808,70.0,116.6342,269.8167,90.267,7.6767e-05,8.23e-06,0.0,0 STARLINK-5931,1 56785U 23078U   24176.19519772  .00000823  00000-0  76767-4 0  9992,2 56785  70.0000 116.6342 0002808 269.8167  90.2670 14.98334951 59544,6950.178,96.107,573.994,570.091,0.0
56785.0,STARLINK-5931,PAYLOAD,2024-06-24 06:17:13,14.98336075,0.0002799,70.0,116.4659,269.0796,91.0042,8.7738e-05,9.54e-06,0.0,0 STARLINK-5931,1 56785U 23078U   24176.26195642  .00000954  00000-0  87738-4 0  9991,2 56785  70.0000 116.4659 0002799 269.0796  91.0042 14.98336075 59981,6950.174,96.107,573.984,570.094,0.0
56785.0,STARLINK-5931,PAYLOAD,2024-06-24 20:42:26,14.98328571,0.00025,70.0008,114.9515,266.5733,93.514,-3.4132e-05,-5e-06,0.0,0 STARLINK-5931,1 56785U 23078U   24176.86280377 -.00000500  00000-0 -34132-4 0  9996,2 56785  70.0008 114.9515 0002500 266.5733  93.5140 14.98328571 59647,6950.197,96.107,573.8,570.325,0.0
56785.0,STARLINK-5931,PAYLOAD,2024-06-25 06:19:14,14.98328039,0.0002508,70.0008,113.9419,265.5437,94.5436,-3.9186e-05,-5.6e-06,0.0,0 STARLINK-5931,1 56785U 23078U   24177.26336448 -.00000560  00000-0 -39186-4 0  9992,2 56785  70.0008 113.9419 0002508 265.5437  94.5436 14.98328039 60131,6950.199,96.107,573.807,570.321,0.0
56785.0,STARLINK-5931,PAYLOAD,2024-06-25 20:44:26,14.98335984,0.0002567,70.0006,112.4273,256.3675,103.7198,1.6286e-05,1.01e-06,0.0,0 STARLINK-5931,1 56785U 23078U   24177.86419618  .00000101  00000-0  16286-4 0  9994,2 56785  70.0006 112.4273 0002567 256.3675 103.7198 14.98335984 59793,6950.174,96.107,573.823,570.255,0.0
56785.0,STARLINK-5931,PAYLOAD,2024-06-25 22:20:34,14.98335807,0.000258,70.0006,112.2591,255.7137,104.3736,1.3212e-05,6.5e-07,0.0,0 STARLINK-5931,1 56785U 23078U   24177.93095608  .00000065  00000-0  13212-4 0  9996,2 56785  70.0006 112.2591 0002580 255.7137 104.3736 14.98335807 60235,6950.175,96.107,573.833,570.247,0.0
56785.0,STARLINK-5931,PAYLOAD,2024-06-26 04:45:06,14.98337561,0.000256,70.0007,111.5859,255.4032,104.6843,3.5224e-05,3.27e-06,0.0,0 STARLINK-5931,1 56785U 23078U   24178.19799342  .00000327  00000-0  35224-4 0  9999,2 56785  70.0007 111.5859 0002560 255.4032 104.6843 14.98337561 60279,6950.17,96.107,573.814,570.255,0.0
56785.0,STARLINK-5931,PAYLOAD,2024-06-27 04:47:08,14.98324497,0.0002518,70.0009,109.0603,263.3116,96.7757,8.355e-06,7e-08,0.0,0 STARLINK-5931,1 56785U 23078U   24179.19940321  .00000007  00000-0  83550-5 0  9996,2 56785  70.0009 109.0603 0002518 263.3116  96.7757 14.98324497 59990,6950.21,96.107,573.825,570.325,0.0
56785.0,STARLINK-5931,PAYLOAD,2024-06-27 22:24:37,14.98325452,0.0002724,70.0001,107.2071,264.0157,96.0692,-4.2859e-05,-6.04e-06,0.0,0 STARLINK-5931,1 56785U 23078U   24179.93376436 -.00000604  00000-0 -42859-4 0  9999,2 56785  70.0001 107.2071 0002724 264.0157  96.0692 14.98325452 60538,6950.207,96.107,573.965,570.179,0.0
56785.0,STARLINK-5931,PAYLOAD,2024-06-28 04:49:08,14.98335833,0.0003072,69.9997,106.5352,272.3275,87.7532,-3.144e-05,-4.68e-06,0.0,0 STARLINK-5931,1 56785U 23078U   24180.20079768 -.00000468  00000-0 -31440-4 0  9991,2 56785  69.9997 106.5352 0003072 272.3275  87.7532 14.98335833 60144,6950.175,96.107,574.175,569.905,0.0
56785.0,STARLINK-5931,PAYLOAD,2024-06-28 12:49:49,14.98334348,0.0003039,69.9998,105.6945,280.5379,79.5437,-6.7977e-05,-9.04e-06,0.0,0 STARLINK-5931,1 56785U 23078U   24180.53459923 -.00000904  00000-0 -67977-4 0  9991,2 56785  69.9998 105.6945 0003039 280.5379  79.5437 14.98334348 60628,6950.179,96.107,574.157,569.932,0.0
56785.0,STARLINK-5931,PAYLOAD,2024-06-28 22:26:37,14.98330359,0.0002923,70.0004,104.6842,266.9675,93.115,4.6114e-05,4.57e-06,0.0,0 STARLINK-5931,1 56785U 23078U   24180.93515923  .00000457  00000-0  46114-4 0  9999,2 56785  70.0004 104.6842 0002923 266.9675  93.1150 14.98330359 60680,6950.192,96.107,574.088,570.025,0.0
56785.0,STARLINK-5931,PAYLOAD,2024-06-29 04:51:09,14.98338654,0.0002783,70.0008,104.0097,270.4178,89.6662,0.00013906,1.567e-05,0.0,0 STARLINK-5931,1 56785U 23078U   24181.20219108  .00001567  00000-0  13906-3 0  9991,2 56785  70.0008 104.0097 0002783 270.4178  89.6662 14.98338654 60293,6950.166,96.106,573.965,570.097,0.0
56785.0,STARLINK-5931,PAYLOAD,2024-06-29 19:16:23,14.98312809,0.0003682,70.0,102.4964,270.0094,90.0644,-9.1065e-05,-1.179e-05,0.0,0 STARLINK-5931,1 56785U 23078U   24181.80305381 -.00001179  00000-0 -91065-4 0  9990,2 56785  70.0000 102.4964 0003682 270.0094  90.0644 14.98312809 60382,6950.246,96.108,574.67,569.552,0.0
56785.0,STARLINK-5931,PAYLOAD,2024-06-29 22:28:40,14.98313485,0.0003356,69.9995,102.1572,282.8759,77.2025,-9.4374e-05,-1.218e-05,0.0,0 STARLINK-5931,1 56785U 23078U   24181.93657614 -.00001218  00000-0 -94374-4 0  9993,2 56785  69.9995 102.1572 0003356 282.8759  77.2025 14.98313485 60832,6950.244,96.108,574.441,569.776,0.0
56785.0,STARLINK-5931,PAYLOAD,2024-06-30 04:53:12,14.98315449,0.000286,70.0003,101.4863,269.025,91.0582,-0.00013722,-1.729e-05,0.0,0 STARLINK-5931,1 56785U 23078U   24182.20361798 -.00001729  00000-0 -13722-3 0  9993,2 56785  70.0003 101.4863 0002860 269.0250  91.0582 14.98315449 60870,6950.238,96.108,574.091,570.115,0.0
56785.0,STARLINK-5931,PAYLOAD,2024-06-30 20:54:32,14.98332563,0.0002958,69.9998,99.8029,266.3226,93.7595,1.1085e-05,3.9e-07,0.0,0 STARLINK-5931,1 56785U 23078U   24182.87120555  .00000039  00000-0  11085-4 0  9992,2 56785  69.9998  99.8029 0002958 266.3226  93.7595 14.98332563 60548,6950.185,96.107,574.106,569.994,0.0
56785.0,STARLINK-5931,PAYLOAD,2024-06-30 22:30:40,14.9833216,0.0002967,69.9998,99.6341,267.9914,92.0905,1.2885e-05,6.1e-07,0.0,0 STARLINK-5931,1 56785U 23078U   24182.93796583  .00000061  00000-0  12885-4 0  9993,2 56785  69.9998  99.6341 0002967 267.9914  92.0905 14.98332160 60982,6950.186,96.107,574.113,569.989,0.0
56785.0,STARLINK-5931,PAYLOAD,2024-07-01 04:55:11,14.98344284,0.0002909,69.9999,98.9619,263.4612,96.6216,7.9112e-05,8.51e-06,0.0,0 STARLINK-5931,1 56785U 23078U   24183.20499487  .00000851  00000-0  79112-4 0  9990,2 56785  69.9999  98.9619 0002909 263.4612  96.6216 14.98344284 60597,6950.149,96.106,574.036,569.992,0.0
56785.0,STARLINK-5931,PAYLOAD,2024-07-01 11:19:43,14.98344686,0.0003121,69.9994,98.2856,275.8569,84.2234,5.1511e-06,-3.2e-07,0.0,0 STARLINK-5931,1 56785U 23078U   24183.47203523 -.00000032  00000-0  51511-5 0  9999,2 56785  69.9994  98.2856 0003121 275.8569  84.2234 14.98344686 61065,6950.147,96.106,574.182,569.843,0.0
56785.0,STARLINK-5931,PAYLOAD,2024-07-01 20:56:33,14.9832236,0.0002727,70.0003,97.2781,271.0967,88.9879,0.00021056,2.42e-05,0.0,0 STARLINK-5931,1 56785U 23078U   24183.87260480  .00002420  00000-0  21056-3 0  9999,2 56785  70.0003  97.2781 0002727 271.0967  88.9879 14.98322360 60695,6950.217,96.107,573.977,570.186,0.0
56785.0,STARLINK-5931,PAYLOAD,2024-07-01 22:32:40,14.98324931,0.0002374,70.0011,97.1095,270.6151,89.4735,0.0002504,2.896e-05,0.0,0 STARLINK-5931,1 56785U 23078U   24183.93936268  .00002896  00000-0  25040-3 0  9994,2 56785  70.0011  97.1095 0002374 270.6151  89.4735 14.98324931 61132,6950.209,96.107,573.724,570.424,0.0
56785.0,STARLINK-5931,PAYLOAD,2024-07-02 11:21:45,14.98325377,0.0002754,70.0002,95.7626,272.0931,87.9913,0.00010161,1.119e-05,0.0,0 STARLINK-5931,1 56785U 23078U   24184.47344670  .00001119  00000-0  10161-3 0  9999,2 56785  70.0002  95.7626 0002754 272.0931  87.9913 14.98325377 61215,6950.207,96.107,573.986,570.158,0.0
